[{"OBJECT_NAME":"STARLINK-35649","OBJECT_ID":"2025-237M","EPOCH":"2026-03-09T22:35:32.374752","MEAN_MOTION":15.3021073,"ECCENTRICITY":0.00012282,"INCLINATION":53.161,"RA_OF_ASC_NODE":38.1301,"ARG_OF_PERICENTER":100.9783,"MEAN_ANOMALY":259.1356,"EPHEMERIS_TYPE":0,"CLASSIFICATION_TYPE":"U","NORAD_CAT_ID":66125,"ELEMENT_SET_NO":999,"REV_AT_EPOCH":2265,"BSTAR":0.00081774871,"MEAN_MOTION_DOT":0.00023946,"MEAN_MOTION_DDOT":0},{"OBJECT_NAME":"CZ-6A DEB","OBJECT_ID":"2022-151EM","EPOCH":"2026-03-09T21:12:10.844640","MEAN_MOTION":15.1479521,"ECCENTRICITY":0.00732342,"INCLINATION":98.809,"RA_OF_ASC_NODE":212.6624,"ARG_OF_PERICENTER":10.5605,"MEAN_ANOMALY":349.714,"EPHEMERIS_TYPE":0,"CLASSIFICATION_TYPE":"U","NORAD_CAT_ID":54413,"ELEMENT_SET_NO":999,"REV_AT_EPOCH":17915,"BSTAR":0.0020661814,"MEAN_MOTION_DOT":0.00041137,"MEAN_MOTION_DDOT":0}]
